NORAD_CAT_ID,OBJECT_NAME,OBJECT_TYPE,EPOCH,MEAN_MOTION,ECCENTRICITY,INCLINATION,RA_OF_ASC_NODE,ARG_OF_PERICENTER,MEAN_ANOMALY,BSTAR,MEAN_MOTION_DOT,MEAN_MOTION_DDOT,TLE_LINE0,TLE_LINE1,TLE_LINE2,SEMIMAJOR_AXIS,PERIOD,APOGEE,PERIGEE,DECAYED
54002.0,STARLINK-5109,PAYLOAD,2023-07-05 13:36:54,15.08840322,0.0001406,53.2177,274.819,114.3925,245.7214,4.4965e-05,4.28e-06,0.0,0 STARLINK-5109,1 54002U 22125AQ  23186.56729822  .00000428  00000-0  44965-4 0  9990,2 54002  53.2177 274.8190 0001406 114.3925 245.7214 15.08840322 41996,6917.879,95.438,540.717,538.772,0.0
54002.0,STARLINK-5109,PAYLOAD,2023-07-06 22:59:59,15.08848474,9.28e-05,53.2169,268.5775,82.5722,277.5375,8.8398e-05,1.12e-05,0.0,0 STARLINK-5109,1 54002U 22125AQ  23187.95833313  .00001120  00000-0  88398-4 0  9993,2 54002  53.2169 268.5775 0000928  82.5722 277.5375 15.08848474 42207,6917.854,95.437,540.361,539.078,0.0
54002.0,STARLINK-5109,PAYLOAD,2023-07-08 08:23:06,15.08839601,8.82e-05,53.2169,262.3354,73.8287,286.2802,3.3592e-05,2.47e-06,0.0,0 STARLINK-5109,1 54002U 22125AQ  23189.34937776  .00000247  00000-0  33592-4 0  9991,2 54002  53.2169 262.3354 0000882  73.8287 286.2802 15.08839601 42417,6917.882,95.438,540.357,539.136,0.0
54002.0,STARLINK-5109,PAYLOAD,2023-07-08 16:20:01,15.08846422,9.6e-05,53.2161,260.8461,91.8222,268.288,0.00010354,1.361e-05,0.0,0 STARLINK-5109,1 54002U 22125AQ  23189.68057328  .00001361  00000-0  10354-3 0  9992,2 54002  53.2161 260.8461 0000960  91.8222 268.2880 15.08846422 42467,6917.861,95.437,540.39,539.062,0.0
54002.0,STARLINK-5109,PAYLOAD,2023-07-09 11:24:40,15.08834778,0.000107,53.2163,257.2769,89.8229,270.2885,-1.838e-05,-5.8e-06,0.0,0 STARLINK-5109,1 54002U 22125AQ  23190.47546475 -.00000580  00000-0 -18380-4 0  9999,2 54002  53.2163 257.2769 0001070  89.8229 270.2885 15.08834778 42589,6917.896,95.438,540.502,539.021,0.0
54002.0,STARLINK-5109,PAYLOAD,2023-07-10 11:15:26,15.08843189,9.2e-05,53.2167,252.8169,91.1117,268.9981,0.00014241,1.98e-05,0.0,0 STARLINK-5109,1 54002U 22125AQ  23191.46905882  .00001980  00000-0  14241-3 0  9994,2 54002  53.2167 252.8169 0000920  91.1117 268.9981 15.08843189 42737,6917.871,95.437,540.372,539.099,0.0
54002.0,STARLINK-5109,PAYLOAD,2023-07-10 20:47:45,15.08839521,9.43e-05,53.2156,251.0329,86.3428,273.7672,8.4319e-05,1.054e-05,0.0,0 STARLINK-5109,1 54002U 22125AQ  23191.86650160  .00001054  00000-0  84319-4 0  9990,2 54002  53.2156 251.0329 0000943  86.3428 273.7672 15.08839521 42792,6917.882,95.438,540.399,539.094,0.0
54002.0,STARLINK-5109,PAYLOAD,2023-07-12 15:43:10,15.08845946,9.98e-05,53.2156,243.004,83.5348,276.5758,8.2109e-05,1.019e-05,0.0,0 STARLINK-5109,1 54002U 22125AQ  23193.65497912  .00001019  00000-0  82109-4 0  9999,2 54002  53.2156 243.0040 0000998  83.5348 276.5758 15.08845946 43068,6917.862,95.437,540.418,539.037,0.0
54002.0,STARLINK-5109,PAYLOAD,2023-07-13 12:23:11,15.08840293,0.0001076,53.2173,239.1351,81.7113,278.4001,3.0903e-05,2.04e-06,0.0,0 STARLINK-5109,1 54002U 22125AQ  23194.51610692  .00000204  00000-0  30903-4 0  9997,2 54002  53.2173 239.1351 0001076  81.7113 278.4001 15.08840293 43192,6917.879,95.438,540.489,539.0,0.0
54002.0,STARLINK-5109,PAYLOAD,2023-07-15 02:32:26,15.08842572,0.0001063,53.2158,232.0011,76.2119,283.8992,0.00017279,2.463e-05,0.0,0 STARLINK-5109,1 54002U 22125AQ  23196.10586217  .00002463  00000-0  17279-3 0  9998,2 54002  53.2158 232.0011 0001063  76.2119 283.8992 15.08842572 43439,6917.873,95.437,540.473,539.002,0.0
54002.0,STARLINK-5109,PAYLOAD,2023-07-16 02:23:13,15.08837868,0.000126,53.2149,227.5419,69.7708,290.3419,4.3768e-06,-2.18e-06,0.0,0 STARLINK-5109,1 54002U 22125AQ  23197.09946745 -.00000218  00000-0  43768-5 0  9994,2 54002  53.2149 227.5419 0001260  69.7708 290.3419 15.08837868 43585,6917.887,95.438,540.624,538.88,0.0
54002.0,STARLINK-5109,PAYLOAD,2023-07-17 18:07:52,15.08836982,0.000102,53.2163,220.1062,81.3592,278.7516,4.5423e-05,4.35e-06,0.0,0 STARLINK-5109,1 54002U 22125AQ  23198.75546980  .00000435  00000-0  45423-4 0  9994,2 54002  53.2163 220.1062 0001020  81.3592 278.7516 15.08836982 43831,6917.89,95.438,540.46,539.049,0.0
54002.0,STARLINK-5109,PAYLOAD,2023-07-19 00:20:12,15.08837849,0.0001036,53.2162,214.4564,81.6469,278.464,6.0118e-05,6.69e-06,0.0,0 STARLINK-5109,1 54002U 22125AQ  23200.01403239  .00000669  00000-0  60118-4 0  9993,2 54002  53.2162 214.4564 0001036  81.6469 278.4640 15.08837849 44026,6917.887,95.438,540.469,539.035,0.0
54002.0,STARLINK-5109,PAYLOAD,2023-07-21 00:01:46,15.0883996,0.000109,53.2162,205.5345,80.1772,279.9343,7.5672e-05,9.17e-06,0.0,0 STARLINK-5109,1 54002U 22125AQ  23202.00123244  .00000917  00000-0  75672-4 0  9996,2 54002  53.2162 205.5345 0001090  80.1772 279.9343 15.08839960 44320,6917.881,95.438,540.5,538.991,0.0
54002.0,STARLINK-5109,PAYLOAD,2023-07-24 10:41:50,15.08836041,0.0001478,53.2167,190.0737,68.358,291.7569,-1.5597e-06,-3.13e-06,0.0,0 STARLINK-5109,1 54002U 22125AQ  23205.44571846 -.00000313  00000-0 -15597-5 0  9995,2 54002  53.2167 190.0737 0001478  68.3580 291.7569 15.08836041 44793,6917.892,95.438,540.78,538.735,0.0
54002.0,STARLINK-5109,PAYLOAD,2023-07-25 10:32:36,15.0884036,0.0001183,53.2164,185.6118,88.1089,272.0039,4.6209e-05,4.48e-06,0.0,0 STARLINK-5109,1 54002U 22125AQ  23206.43931431  .00000448  00000-0  46209-4 0  9995,2 54002  53.2164 185.6118 0001183  88.1089 272.0039 15.08840360 44940,6917.879,95.438,540.563,538.926,0.0
54002.0,STARLINK-5109,PAYLOAD,2023-07-26 07:12:38,15.08836179,0.0001547,53.2152,181.749,65.1001,295.0151,2.811e-05,1.59e-06,0.0,0 STARLINK-5109,1 54002U 22125AQ  23207.30044233  .00000159  00000-0  28110-4 0  9997,2 54002  53.2152 181.7490 0001547  65.1001 295.0151 15.08836179 45078,6917.892,95.438,540.827,538.687,0.0
54002.0,STARLINK-5109,PAYLOAD,2023-07-27 02:17:15,15.08836573,0.0001119,53.2165,178.1778,97.7652,262.3467,9.8491e-05,1.28e-05,0.0,0 STARLINK-5109,1 54002U 22125AQ  23208.09531686  .00001280  00000-0  98491-4 0  9992,2 54002  53.2165 178.1778 0001119  97.7652 262.3467 15.08836573 45243,6917.891,95.438,540.53,538.982,0.0
54002.0,STARLINK-5109,PAYLOAD,2023-07-27 07:03:24,15.08820426,0.0001155,53.2171,177.2863,103.5992,256.5128,0.00037556,5.691e-05,0.0,0 STARLINK-5109,1 54002U 22125AQ  23208.29403482  .00005691  00000-0  37556-3 0  9990,2 54002  53.2171 177.2863 0001155 103.5992 256.5128 15.08820426 45225,6917.94,95.439,540.604,539.006,0.0
54002.0,STARLINK-5109,PAYLOAD,2023-07-27 15:00:20,15.08834271,0.0001074,53.2172,175.7951,106.8175,253.2935,6.8655e-05,8.05e-06,0.0,0 STARLINK-5109,1 54002U 22125AQ  23208.62523927  .00000805  00000-0  68655-4 0  9991,2 54002  53.2172 175.7951 0001074 106.8175 253.2935 15.08834271 45274,6917.898,95.438,540.506,539.02,0.0
54002.0,STARLINK-5109,PAYLOAD,2023-07-28 05:18:49,15.08841243,0.0001449,53.2173,173.1234,101.5854,258.5301,-0.00017817,-3.123e-05,0.0,0 STARLINK-5109,1 54002U 22125AQ  23209.22140725 -.00003123  00000-0 -17817-3 0  9990,2 54002  53.2173 173.1234 0001449 101.5854 258.5301 15.08841243 45411,6917.877,95.437,540.744,538.739,0.0
54002.0,STARLINK-5109,PAYLOAD,2023-07-28 10:04:58,15.0883596,0.0001167,53.2169,172.2307,87.4895,272.6231,-6.2563e-06,-3.87e-06,0.0,0 STARLINK-5109,1 54002U 22125AQ  23209.42012525 -.00000387  00000-0 -62563-5 0  9997,2 54002  53.2169 172.2307 0001167  87.4895 272.6231 15.08835960 45396,6917.893,95.438,540.565,538.95,0.0
54002.0,STARLINK-5109,PAYLOAD,2023-07-29 03:34:12,15.08846592,0.0001037,53.2162,168.9599,90.7335,269.3776,5.1247e-05,5.28e-06,0.0,0 STARLINK-5109,1 54002U 22125AQ  23210.14875721  .00000528  00000-0  51247-4 0  9994,2 54002  53.2162 168.9599 0001037  90.7335 269.3776 15.08846592 45554,6917.86,95.437,540.443,539.008,0.0
54002.0,STARLINK-5109,PAYLOAD,2023-07-30 01:49:37,15.08835685,0.0001127,53.2169,164.7959,86.505,273.6071,0.00013903,1.925e-05,0.0,0 STARLINK-5109,1 54002U 22125AQ  23211.07612339  .00001925  00000-0  13903-3 0  9999,2 54002  53.2169 164.7959 0001127  86.5050 273.6071 15.08835685 45694,6917.894,95.438,540.538,538.979,0.0
54002.0,STARLINK-5109,PAYLOAD,2023-07-30 03:24:59,15.08841293,0.0001216,53.2168,164.4975,101.0118,259.1011,0.00011814,1.593e-05,0.0,0 STARLINK-5109,1 54002U 22125AQ  23211.14236004  .00001593  00000-0  11814-3 0  9998,2 54002  53.2168 164.4975 0001216 101.0118 259.1011 15.08841293 45702,6917.876,95.437,540.583,538.9,0.0
54002.0,STARLINK-5109,PAYLOAD,2023-08-01 03:06:34,15.08834896,0.0001548,53.2177,155.5797,100.1095,260.0072,2.4722e-06,-2.49e-06,0.0,0 STARLINK-5109,1 54002U 22125AQ  23213.12956867 -.00000249  00000-0  24722-5 0  9996,2 54002  53.2177 155.5797 0001548 100.1095 260.0072 15.08834896 46000,6917.896,95.438,540.832,538.69,0.0
54002.0,STARLINK-5109,PAYLOAD,2023-08-02 02:57:21,15.08843945,0.0001385,53.2172,151.1188,94.3617,265.7533,5.702e-05,6.2e-06,0.0,0 STARLINK-5109,1 54002U 22125AQ  23214.12316411  .00000620  00000-0  57020-4 0  9990,2 54002  53.2172 151.1188 0001385  94.3617 265.7533 15.08843945 46159,6917.868,95.437,540.691,538.775,0.0
54002.0,STARLINK-5109,PAYLOAD,2023-08-03 05:58:54,15.08849902,0.0001374,53.2175,146.0627,100.7286,259.3861,0.00019453,2.81e-05,0.0,0 STARLINK-5109,1 54002U 22125AQ  23215.24923838  .00002810  00000-0  19453-3 0  9991,2 54002  53.2175 146.0627 0001374 100.7286 259.3861 15.08849902 46326,6917.85,95.437,540.666,538.765,0.0
54002.0,STARLINK-5109,PAYLOAD,2023-08-04 02:38:56,15.08835621,0.0001072,53.2159,142.1959,104.1502,255.9609,-2.0036e-06,-3.2e-06,0.0,0 STARLINK-5109,1 54002U 22125AQ  23216.11037488 -.00000320  00000-0 -20036-5 0  9992,2 54002  53.2159 142.1959 0001072 104.1502 255.9609 15.08835621 46456,6917.894,95.438,540.5,539.017,0.0
54002.0,STARLINK-5109,PAYLOAD,2023-08-05 02:29:42,15.08851926,0.0001304,53.2171,137.7361,97.4634,262.6506,8.0854e-05,1e-05,0.0,0 STARLINK-5109,1 54002U 22125AQ  23217.10396618  .00001000  00000-0  80854-4 0  9992,2 54002  53.2171 137.7361 0001304  97.4634 262.6506 15.08851926 46609,6917.844,95.437,540.611,538.807,0.0
